#dP2023  4 28  0  0  0.00000000      96 __u+U ITR00 FIT  IAC
## 2259 432000.00000000   900.00000000 60062 0.0000000000000
+  119   C06C07C08C09C10C11C12C13C14C16C19C20C21C22C23C24C25
+        C26C27C28C29C30C32C33C34C35C36C37C38C39C40C41C42C43
+        C44C45C46E01E02E03E04E05E07E08E09E10E11E12E13E14E15
+        E19E21E24E25E26E27E30E31E33E34E36G01G02G03G04G05G06
+        G07G08G09G10G11G12G13G14G15G16G17G18G19G20G21G22G23
+        G24G25G26G27G28G29G30G31G32J02J03J04R01R02R03R04R05
+        R07R08R09R11R12R13R14R15R16R17R18R19R20R21R22R24R25
++         9  9  5  9  8  7  5  8  7  9  7  8  7  7  5  7  6
++         7  6  7  7  7  7  6  7  6  7  6  9  9  8  7  7  5
++         7  7  6  5  5  6  6  6  5  6  6  6  6  7  4  7  5
++         5  5  5  5  6  6  5  6  6  5  6  5  4  6  6  5  6
++         6  6  6  6  5  5  5  6  5  6  5  6  5  5  6  6  5
++         5  5  6  5  5  5  5  6  6  8  7  6  4  6  5  6  6
++         5  7  5  6  9  7  6  7  6  6  5  7  6  7  5  7  6
%c M  cc GPS ccc cccc cccc cccc cccc ccccc ccccc ccccc ccccc
%c cc cc ccc ccc cccc cccc cccc cccc ccccc ccccc ccccc ccccc
%f  0.0000000  0.000000000  0.00000000000  0.000000000000000
%f  0.0000000  0.000000000  0.00000000000  0.000000000000000
%i    0    0    0    0      0      0      0      0         0
%i    0    0    0    0      0      0      0      0         0
/* INFORMATION & ANALYSIS CENTER (IAC)      ULTRA-RAPID DATA
/* S/V CLOCKS ARE ALIGNED TO GNSS TIME                      
/* G:C1WC2W R:C1PC2P E:C1XC5X C:C2IC6I J:C1CC2S             
/* PCV:IGS20_2247 OL/AL:FES2004  NONE     YN ORB:CoN CLK:CoN
*  2023 04 28  5 15  0.00000000
PC06  -1458.325764  33277.546443 -25666.153411   -195.637943
PC07 -15235.805088  26950.725318  28597.178266     62.760106
PC08 -15681.915435  38792.432489  -5905.114340    496.878971
PC09   5902.631416  37264.006335 -17835.641099    716.768628
PC10  -5433.008067  27812.632746  31422.792900    -44.301608
PC11  16117.556882  -4047.250194 -22360.803424    324.684898
PC12  21904.308234  13115.734557 -11238.608357    601.360974
PC13 -10195.326442  39214.566800 -11975.011866    262.628021
PC14  25435.456821 -10099.084385   5653.364905    183.231703
PC16  -3672.836467  31097.845160 -27862.918405     95.889099
PC19 -19246.247898  14461.352675 -14059.071223   -904.777023
PC20 -27340.337363   5103.417082   2042.257341    600.605082
PC21  19553.506082   8103.738029 -18180.934853   -911.626626
PC22    400.817138  15954.231730 -22884.542004   -514.451945
PC23   2519.897306 -26802.589808  -7344.947392   -915.298978
PC24  17326.427805  -3743.155515  21536.384012   -118.624818
PC25  13144.840453 -22788.071848   9272.256858    115.533254
PC26  11347.649724  14863.911140  20708.549542   -112.548948
PC27 -20406.532761 -18757.605476   3283.825818    132.140404
PC28  -9205.966205 -23055.284787 -12747.155566     97.512835
PC29  -8585.252143  13804.681608  22671.484380    113.059241
PC30 -21221.705808  -3752.689519  17730.461851      0.128327
PC32 -19511.978780  -8047.342687  18266.606346   -571.172775
PC33  19246.537251 -14594.127390  14007.181200   -876.385253
PC34  20735.727154   2459.639139 -18516.759124    158.672886
PC35   9275.880822  22638.306264  13372.977517    637.895682
PC36 -13987.624018  22022.622747  -9889.545869   -474.286613
PC37 -10311.400610 -16225.118183 -20209.252914   -786.432000
PC38 -19382.603635  37431.013566   2706.367639     74.716680
PC39  -7109.632171  27347.585880 -31180.549274     -2.724382
PC40 -20717.852191  20487.477276  30370.915672    -21.613443
PC41    330.416647 -16154.253628  22811.629022   -907.322409
PC42  27386.119168  -4330.685767  -3259.205677   -716.492594
PC43   9412.698713 -13247.299487 -22701.025833     18.810796
PC44  21041.921245  18033.707818  -3138.542953     89.671058
PC45  -2254.447830  26709.429737   7800.240166    -90.669378
PC46 -17398.009440   5601.948843 -21099.049305    -50.134247
PE01 -24335.697751  15583.440084  -6424.308532      9.307684
PE02  24228.854353 -15904.639366   5970.401423     34.944623
PE03  22705.330198  -5891.051799  18066.809824   -673.578400
PE04  -4147.421441  16535.562438 -24184.947802   -110.272483
PE05  28336.243296   8490.365364   1147.231396    -72.593574
PE07 -17085.777505 -17766.674135  16392.295629    -40.957987
PE08   4396.323092 -16318.932577  24307.733852    -74.433076
PE09  17019.878594  17674.049517 -16559.061690      4.176158
PE10   4406.100071  29140.319286   2731.727191   -529.716018
PE11  10676.189367  26479.155179  -7784.823716   1751.708103
PE12  -2150.518349  27045.309984  11800.834390   -516.339242
PE13 -10270.152688 -26869.827105   7010.042960    -18.902087
PE14  30000.982358   8334.903487  -5606.370709    209.656388
PE15   2289.002944 -26910.351098 -12128.553253    -17.757605
PE19 -24399.682049   3807.308599 -16306.679953  -2661.691146
PE21 -21429.510762    289.629715 -20422.367438   -525.942108
PE24   5347.741339  16979.127288  23634.978816    -68.656753
PE25  21256.925954     24.305610  20598.250308   -604.102199
PE26 -16848.753530 -10247.012272  22076.574815     88.188140
PE27  -6132.618496 -16420.272709 -23852.607307    -35.976854
PE30  13155.984128 -23261.820673 -12727.290298   -128.709542
PE31 -12622.780059  23295.001522  13203.133336   -522.484587
PE33 -13407.755282  11044.931932  23963.769508   -445.306030
PE34  13328.452761 -11249.808630 -23924.110960    -42.540306
PE36  16659.488734  11080.094647 -21810.056339    -47.962390
PG01 -13708.883780   5168.447267  21794.118157    189.605691
PG02  -1027.161354 -25524.619840  -7355.752882   -601.708164
PG03 -22467.426426  11922.204198   7301.754232   -318.317470
PG04 -21632.855207   2431.869737 -15281.658641     27.678507
PG05  18262.625678   1714.815947 -19423.671821   -125.097258
PG06   5158.321666  25927.812822  -1861.724655    587.867459
PG07  -7862.822874  19733.035224 -15181.807934    191.269922
PG08 -25757.379430  -5880.120808   4264.579195   -119.857520
PG09 -12848.919099  10887.108708 -20618.128998   -170.708799
PG10   4924.379015 -19305.789955  17583.806841    -34.676407
PG11  12345.603699  18211.875269 -14896.612131   -177.499392
PG12  23236.193607  -8570.133251   9193.200887   -369.324664
PG13  22888.425961  13642.628186  -1363.326267    512.142870
PG14  -8223.132911  20034.599829  15287.871963     38.891870
PG15  26154.213122   2850.908911   4110.083298     34.593853
PG16 -16151.878314  -6252.013298 -20561.720056   -505.510544
PG17   2115.211708  16626.991465  21008.526207    712.581401
PG18   5798.075363 -22320.217724 -13043.398997   -243.224776
PG19  11862.668662  17925.108242  15563.749682    309.559760
PG20  11785.344727  10026.576203 -21551.860921    436.582621
PG21 -16353.344506  -4562.152481  21169.796872    154.063781
PG22 -14513.231645 -17765.886978  13972.935826    471.931342
PG23  15282.097186 -20182.142707   7785.257258     19.976544
PG24  15805.274482   -825.356339  21005.694258   -168.478268
PG25  20016.271507 -17231.891471   -590.715039    438.872878
PG26  -5918.152523 -15497.024371 -20801.256769    241.393479
PG27 -22409.549687 -13256.773086  -6512.625393     49.235189
PG28  -5076.586973 -26073.658915     68.945920     71.468464
PG29  16578.866326  -6871.054383 -19665.572619   -597.317679
PG30   -271.223981  25795.070543  -5591.780345   -520.151038
PG31  -9606.845927 -22868.237976  -9045.907549   -214.947332
PG32  -6113.601786 -17010.423353  19705.275590   -462.897924
PJ02 -28988.009155  30619.790800   7453.931517     -1.681471
PJ03 -25739.529766  23495.410460  28812.924003      3.069710
PJ04 -33913.158371  21747.375735  -7288.581140     94.296483
PR01  17019.034034   7148.693550 -17605.327383     27.504105
PR02  25448.667632   -619.992367   -948.537087    -22.916478
PR03  18556.981165  -8248.731567  15452.305603     76.818486
PR04   1715.615156 -10831.337441  23064.551239    185.038488
PR05 -16137.599049  -7811.272437  18171.290968    111.663079
PR07 -18052.218504   8418.501726 -15916.793498     54.751414
PR08  -1471.190172  10919.018414 -22942.471014    -70.556951
PR09 -13951.833337   5574.302306 -20574.148152    117.139228
PR11  -6856.901544  23040.846859   8515.874006    -44.642811
PR12   5420.889289  12327.321484  21689.855575     26.794603
PR13  13279.862286  -3722.990318  21442.084181    -34.459923
PR14  14061.345382 -19820.953632   7793.779490     24.606332
PR15   6347.748033 -22768.135120  -9580.904283     89.537035
PR16  -5157.605348 -12539.819751 -21605.556726     13.988524
PR17   6134.866238  -9661.837949 -22789.459822    625.111958
PR18  -5542.224902 -20672.966523 -13912.035734     78.755051
PR19 -13173.535947 -21832.368661    739.893524   -230.647586
PR20 -14768.840639  -8621.978721  18948.779791    -91.935761
PR21  -5019.825318  11024.502525  22446.076644     -3.344718
PR22   5166.976562  21272.655892  13101.940098     81.274358
PR24  15200.602573   7307.003835 -19128.764225    165.630223
PR25  -6934.221866   9394.436134  22682.078050     64.674345
EOF
